{"type": "FeatureCollection", "features": [ {"type": "Feature", "properties": {"norad_id": 58654, "name": "BEIDOU-3 M28 (C50)", "group": "beidou", "lat": 45.978774039300575, "lon": -156.60537785085495, "alt_km": 21528.861895592727, "timestamp": "2025-12-16T08:59:43.425906+00:00", "meta": {"OBJECT_NAME": "BEIDOU-3 M28 (C50)", "OBJECT_ID": "2023-207A", "EPOCH": "2025-12-15T15:50:05.112096", "MEAN_MOTION": 1.8622982, "ECCENTRICITY": 0.00025263, "INCLINATION": 55.587, "RA_OF_ASC_NODE": 68.5025, "ARG_OF_PERICENTER": 270.8998, "MEAN_ANOMALY": 89.0909, "EPHEMERIS_TYPE": 0, "CLASSIFICATION_TYPE": "U", "NORAD_CAT_ID": 58654, "ELEMENT_SET_NO": 999, "REV_AT_EPOCH": 1342, "BSTAR": 0, "MEAN_MOTION_DOT": -8.4e-07, "MEAN_MOTION_DDOT": 0}, "tle": {"line1": "1 58654U 23207A   25349.65978139 -.00000084  00000+0  00000+0 0  9994", "line2": "2 58654  55.5870  68.5025 0002526 270.8998  89.0909  1.86229820 13427"}}, "geometry": {"type": "Point", "coordinates": [-156.60537785085495, 45.978774039300575]}}, {"type": "Feature", "properties": {"norad_id": 58655, "name": "BEIDOU-3 M26 (C48)", "group": "beidou", "lat": -52.87711551580483, "lon": -46.81015947396435, "alt_km": 21522.929905578916, "timestamp": "2025-12-16T08:59:43.425917+00:00", "meta": {"OBJECT_NAME": "BEIDOU-3 M26 (C48)", "OBJECT_ID": "2023-207B", "EPOCH": "2025-12-14T09:12:13.791744", "MEAN_MOTION": 1.86231292, "ECCENTRICITY": 0.00038911, "INCLINATION": 55.5879, "RA_OF_ASC_NODE": 68.532, "ARG_OF_PERICENTER": 256.6064, "MEAN_ANOMALY": 103.3685, "EPHEMERIS_TYPE": 0, "CLASSIFICATION_TYPE": "U", "NORAD_CAT_ID": 58655, "ELEMENT_SET_NO": 999, "REV_AT_EPOCH": 1338, "BSTAR": 0, "MEAN_MOTION_DOT": -8.4e-07, "MEAN_MOTION_DDOT": 0}, "tle": {"line1": "1 58655U 23207B   25348.38349296 -.00000084  00000+0  00000+0 0  9990", "line2": "2 58655  55.5879  68.5320 0003891 256.6064 103.3685  1.86231292 13389"}}, "geometry": {"type": "Point", "coordinates": [-46.81015947396435, -52.87711551580483]}}, {"type": "Feature", "properties": {"norad_id": 61186, "name": "BEIDOU-3 M25 (C47)", "group": "beidou", "lat": 9.776858951958058, "lon": -44.40480082844833, "alt_km": 21522.93976613428, "timestamp": "2025-12-16T08:59:43.425928+00:00", "meta": {"OBJECT_NAME": "BEIDOU-3 M25 (C47)", "OBJECT_ID": "2024-168B", "EPOCH": "2025-12-13T09:51:38.613312", "MEAN_MOTION": 1.86230198, "ECCENTRICITY": 0.00054273, "INCLINATION": 54.6413, "RA_OF_ASC_NODE": 308.6962, "ARG_OF_PERICENTER": 297.8799, "MEAN_ANOMALY": 246.8955, "EPHEMERIS_TYPE": 0, "CLASSIFICATION_TYPE": "U", "NORAD_CAT_ID": 61186, "ELEMENT_SET_NO": 999, "REV_AT_EPOCH": 832, "BSTAR": 0, "MEAN_MOTION_DOT": -9.7e-07, "MEAN_MOTION_DDOT": 0}, "tle": {"line1": "1 61186U 24168B   25347.41086358 -.00000097  00000+0  00000+0 0  9994", "line2": "2 61186  54.6413 308.6962 0005427 297.8799 246.8955  1.86230198  8320"}}, "geometry": {"type": "Point", "coordinates": [-44.40480082844833, 9.776858951958058]}}, {"type": "Feature", "properties": {"norad_id": 61187, "name": "BEIDOU-3 M27 (C49)", "group": "beidou", "lat": 26.40427722983846, "lon": 107.92208538668321, "alt_km": 21531.553969813645, "timestamp": "2025-12-16T08:59:43.425939+00:00", "meta": {"OBJECT_NAME": "BEIDOU-3 M27 (C49)", "OBJECT_ID": "2024-168C", "EPOCH": "2025-12-14T06:33:38.742048", "MEAN_MOTION": 1.86230381, "ECCENTRICITY": 0.00024262, "INCLINATION": 54.6359, "RA_OF_ASC_NODE": 308.6501, "ARG_OF_PERICENTER": 337.7802, "MEAN_ANOMALY": 200.2001, "EPHEMERIS_TYPE": 0, "CLASSIFICATION_TYPE": "U", "NORAD_CAT_ID": 61187, "ELEMENT_SET_NO": 999, "REV_AT_EPOCH": 581, "BSTAR": 0, "MEAN_MOTION_DOT": -9.9e-07, "MEAN_MOTION_DDOT": 0}, "tle": {"line1": "1 61187U 24168C   25348.27336507 -.00000099  00000+0  00000+0 0  9996", "line2": "2 61187  54.6359 308.6501 0002426 337.7802 200.2001  1.86230381  5815"}}, "geometry": {"type": "Point", "coordinates": [107.92208538668321, 26.40427722983846]}}]}